1 41747U 16053A   25238.82832590  .00000000  00000-0  00000-0 0  9995
2 41747   0.0182 100.5180 0002443 251.4012 350.0805  1.00269050 32996
1 41747U 16053A   25239.18526969  .00000000  00000-0  00000-0 0  9995
2 41747   0.0186  99.6323 0002426 252.3840 118.8328  1.00269187 33001
1 41747U 16053A   25239.54213167 -.00000025  00000-0  00000-0 0  9996
2 41747   0.0170  77.3930 0002488 274.5432 247.7317  1.00271049 33002
1 41747U 16053A   25239.88167619 -.00000024  00000-0  00000-0 0  9992
2 41747   0.0162  76.8253 0002475 274.9209  10.4918  1.00271116 33004
1 41747U 16053A   25240.54138416  .00000000  00000-0  00000-0 0  9993
2 41747   0.0180  99.4221 0001864 251.6443 249.3175  1.00267609 33014
1 41747U 16053A   25240.96445944 -.00000022  00000-0  00000-0 0  9991
2 41747   0.0201  82.6762 0001971 269.0381  41.3950  1.00271137 33017
1 41747U 16053A   25241.18376508 -.00000021  00000-0  00000-0 0  9994
2 41747   0.0192  92.6323 0002030 259.8875 119.7556  1.00271205 33021
1 41747U 16053A   25241.82594581  .00000000  00000-0  00000-0 0  9994
2 41747   0.0179  99.6141 0001570 247.0572 357.4212  1.00268474 33026
1 41747U 16053A   25242.11161396  .00000000  00000-0  00000-0 0  9991
2 41747   0.0188 101.1409 0001550 246.7299  99.3438  1.00269575 33027
1 41747U 16053A   25242.87614273  .00000000  00000-0  00000-0 0  9991
2 41747   0.0155 104.7207 0001398 249.8372   8.6473  1.00271010 33032
1 41747U 16053A   25243.53914523  .00000000  00000-0  00000-0 0  9996
2 41747   0.0156 109.6948 0001123 242.1818 250.6622  1.00268989 33043
1 41747U 16053A   25243.89605177  .00000000  00000-0  00000-0 0  9997
2 41747   0.0143 111.1316 0001534 238.2764  21.9701  1.00267289 33047
1 41747U 16053A   25244.18151698  .00000000  00000-0  00000-0 0  9994
2 41747   0.0146 111.9153 0001439 239.8844 122.6284  1.00269433 33056
1 41747U 16053A   25244.53838902  .00000000  00000-0  00000-0 0  9993
2 41747   0.0161 111.7590 0001438 238.9042 252.5895  1.00269402 33052
1 41747U 16053A   25245.53766638  .00000000  00000-0  00000-0 0  9990
2 41747   0.0191 112.5260 0001416 235.6072 255.8417  1.00269132 33068
1 41747U 16053A   25245.89449748  .00000000  00000-0  00000-0 0  9999
2 41747   0.0199 112.4262 0001435 238.8344  21.5247  1.00269170 33066
1 41747U 16053A   25246.17999402  .00000000  00000-0  00000-0 0  9998
2 41747   0.0206 114.4981 0001428 234.9614 126.3853  1.00269108 33073
1 41747U 16053A   25246.89375391  .00000000  00000-0  00000-0 0  9992
2 41747   0.0224 115.2101 0001404 229.9466  28.3437  1.00269074 33070
1 41747U 16053A   25247.17924985  .00000000  00000-0  00000-0 0  9993
2 41747   0.0231 116.9101 0001411 226.4733 133.1764  1.00269029 33082
1 41747U 16053A   25247.63137269  .00000000  00000-0  00000-0 0  9995
2 41747   0.0229 121.2373 0001162 218.4517 300.0813  1.00268739 33080
1 41747U 16053A   25248.17833572  .00000000  00000-0  00000-0 0  9995
2 41747   0.0214 125.5242 0001397 218.9698 132.7238  1.00268535 33097
1 41747U 16053A   25249.17747324  .00000000  00000-0  00000-0 0  9995
2 41747   0.0191 134.4816 0001391 207.0345 136.3779  1.00269632 33100
1 41747U 16053A   25250.10529997  .00000000  00000-0  00000-0 0  9994
2 41747   0.0168 142.2601 0001506 199.9056 110.6591  1.00268240 33100
1 41747U 16053A   25250.57285071  .00000000  00000-0  00000-0 0  9997
2 41747   0.0161 146.5828 0001500 202.4559 272.5670  1.00274639 33119
1 41747U 16053A   25251.58463455  .00000000  00000-0  00000-0 0  9993
2 41747   0.0140 148.7227 0001572 189.5473 288.5683  1.00268803 33120
1 41747U 16053A   25251.88956485  .00000000  00000-0  00000-0 0  9996
2 41747   0.0141 145.3069 0001596 188.8086  42.7966  1.00268866 33129
1 41747U 16053A   25252.82822617  .00000000  00000-0  00000-0 0  9990
2 41747   0.0140 135.7745 0001654 195.9122  24.0627  1.00269297 33134
1 41747U 16053A   25253.17415043  .00000000  00000-0  00000-0 0  9990
2 41747   0.0140 133.0669 0001650 199.9950 147.5597  1.00269441 33148
1 41747U 16053A   25253.95923892  .00000000  00000-0  00000-0 0  9992
2 41747   0.0129 134.7004 0001611 196.1218  73.2059  1.00271027 33140
1 41747U 16053A   25254.77540562  .00000000  00000-0  00000-0 0  9992
2 41747   0.0123 133.6112 0001591 201.1401   3.9018  1.00271522 33156
1 41747U 16053A   25255.59673325  .00000000  00000-0  00000-0 0  9997
2 41747   0.0123 132.4233 0001515 199.5467 303.1701  1.00269784 33167
1 41747U 16053A   25255.95755306 -.00000031  00000-0  00000-0 0  9992
2 41747   0.0106 113.3528 0001691 221.7774  70.2719  1.00270531 33160
1 41747U 16053A   25256.91225476 -.00000035  00000-0  00000-0 0  9993
2 41747   0.0104 116.6489 0001698 220.5504  52.8362  1.00270490 33170
1 41747U 16053A   25256.99087785  .00000000  00000-0  00000-0 0  9991
2 41747   0.0123 132.3975 0001597 202.1436  83.8706  1.00271663 33173
1 41747U 16053A   25258.38392854  .00000000  00000-0  00000-0 0  9992
2 41747   0.0137 135.2683 0001708 203.0603 222.9566  1.00269602 33198
1 41747U 16053A   25258.74092332  .00000000  00000-0  00000-0 0  9990
2 41747   0.0145 135.6060 0001717 202.6733 351.8758  1.00269656 33193
1 41747U 16053A   25259.16907274  .00000000  00000-0  00000-0 0  9997
2 41747   0.0158 135.4209 0001747 201.2166 148.0731  1.00269656 33207
1 41747U 16053A   25259.59725207  .00000000  00000-0  00000-0 0  9998
2 41747   0.0170 134.9664 0001745 201.3773 302.9327  1.00269643 33201
1 41747U 16053A   25260.16821804  .00000000  00000-0  00000-0 0  9993
2 41747   0.0181 135.0058 0001784 200.5241 149.8569  1.00269611 33218
1 41747U 16053A   25260.89364157  .00000000  00000-0  00000-0 0  9996
2 41747   0.0194 134.4683 0001787 201.1435  51.6412  1.00269620 33211
1 41747U 16053A   25261.01016838  .00000000  00000-0  00000-0 0  9991
2 41747   0.0197 134.8082 0001795 200.8432  93.6659  1.00269619 33210
1 41747U 16053A   25261.89558685  .00000000  00000-0  00000-0 0  9998
2 41747   0.0176 146.4108 0001812 195.7254  46.8087  1.00268219 33220
1 41747U 16053A   25261.95245947  .00000000  00000-0  00000-0 0  9999
2 41747   0.0176 146.4104 0001780 195.0401  68.0244  1.00268849 33227
1 41747U 16053A   25262.59472508  .00000000  00000-0  00000-0 0  9995
2 41747   0.0173 154.5534 0001475 185.2640 301.5074  1.00269353 33236
1 41747U 16053A   25262.87475370  .00000000  00000-0  00000-0 0  9996
2 41747   0.0158 160.2567 0001774 185.3344  36.8224  1.00268794 33236
1 41747U 16053A   25264.02209769  .00000000  00000-0  00000-0 0  9992
2 41747   0.0148 176.3475 0001696 173.2230  87.0193  1.00269355 33242
1 41747U 16053A   25265.07891861  .00000000  00000-0  00000-0 0  9998
2 41747   0.0141 193.0999 0001656 160.8061 104.1834  1.00269593 33261
1 41747U 16053A   25265.52081087  .00000000  00000-0  00000-0 0  9999
2 41747   0.0135 191.9200 0001650 161.3088 264.3762  1.00269750 33269
1 41747U 16053A   25265.77614078  .00000000  00000-0  00000-0 0  9998
2 41747   0.0129 189.9544 0001641 162.7263 357.0941  1.00269837 33265
1 41747U 16053A   25266.09176830  .00000000  00000-0  00000-0 0  9993
2 41747   0.0125 189.8403 0001636 163.6816 110.1887  1.00269971 33279
1 41747U 16053A   25266.92266867  .00000000  00000-0  00000-0 0  9995
2 41747   0.0112 182.9481 0001631 168.9667  51.7375  1.00270237 33271
1 41747U 16053A   25267.21572558  .00000000  00000-0  00000-0 0  9995
2 41747   0.0104 180.4131 0001629 171.2039 157.8241  1.00270337 33286
1 41747U 16053A   25267.83169698  .00000000  00000-0  00000-0 0  9990
2 41747   0.0098 171.5755 0001637 178.4315  21.7905  1.00270494 33286
1 41747U 16053A   25269.93859231 -.00000021  00000-0  00000-0 0  9996
2 41747   0.0080 198.6935 0001380 152.4413  61.2486  1.00274251 33304
1 41747U 16053A   25270.01678362 -.00000020  00000-0  00000-0 0  9990
2 41747   0.0083 198.0831 0001591 150.9288  91.5944  1.00270467 33303
1 41747U 16053A   25270.92753336  .00000000  00000-0  00000-0 0  9992
2 41747   0.0092 207.6366 0001499 141.5808  60.1379  1.00270534 33314
1 41747U 16053A   25271.01589669  .00000000  00000-0  00000-0 0  9999
2 41747   0.0093 207.1534 0001515 141.8797  92.2203  1.00270305 33314
1 41747U 16053A   25271.87224916 -.00000021  00000-0  00000-0 0  9998
2 41747   0.0166 280.7869 0001459  83.6767  25.9458  1.00271467 33326
1 41747U 16053A   25272.17475318 -.00000021  00000-0  00000-0 0  9996
2 41747   0.0148 276.3092 0001484  88.1031 135.1961  1.00270824 33337
1 41747U 16053A   25272.72868544 -.00000021  00000-0  00000+0 0  9993
2 41747   0.0133 264.4985 0001493  98.0301 337.0394  1.00270919 33338
1 41747U 16053A   25272.87138047  .00000000  00000-0  00000-0 0  9994
2 41747   0.0102 201.4992 0001525 152.5066  37.0511  1.00269202 33334
1 41747U 16053A   25273.15681096  .00000000  00000-0  00000+0 0  9992
2 41747   0.0105 199.4566 0001507 155.2343 139.4018  1.00269195 33349
1 41747U 16053A   25273.15681097  .00000000  00000-0  00000-0 0  9994
2 41747   0.0105 199.4566 0001507 155.2343 139.4018  1.00269195 33349
1 41747U 16053A   25273.44226558  .00000000  00000-0  00000+0 0  9992
2 41747   0.0107 193.5249 0001495 160.7793 242.8328  1.00269192 33340
1 41747U 16053A   25273.65459237  .00000000  00000-0  00000-0 0  9998
2 41747   0.0108 193.0151 0001497 160.9947 319.7736  1.00269167 33342
1 41747U 16053A   25273.72774686  .00000000  00000-0  00000+0 0  9993
2 41747   0.0107 192.0051 0001500 161.7263 346.4596  1.00269160 33348
1 41747U 16053A   25274.08452464  .00000000  00000-0  00000+0 0  9990
2 41747   0.0113 187.9167 0001505 164.1089 116.9565  1.00269109 33354
1 41747U 16053A   25274.08452465  .00000000  00000-0  00000-0 0  9992
2 41747   0.0113 187.9167 0001505 164.1089 116.9565  1.00269109 33354
1 41747U 16053A   25274.65547580  .00000000  00000-0  00000+0 0  9997
2 41747   0.0118 183.4577 0001493 166.1580 325.4698  1.00269013 33357
1 41747U 16053A   25274.94096047  .00000000  00000-0  00000-0 0  9997
2 41747   0.0121 180.3271 0001509 168.0209  69.7927  1.00269000 33354
1 41747U 16053A   25275.08378089  .00000000  00000-0  00000+0 0  9991
2 41747   0.0123 180.4297 0001519 166.5427 122.7240  1.00268965 33369
